STARLINK-2590           
1 48397U 21038AW  23036.19428901  .00000752  00000+0  69395-4 0  9992
2 48397  53.0554   7.6338 0001595 102.3119 257.8049 15.06397689 97802
STARLINK-2588           
1 48398U 21038AX  23035.32808990  .00001885  00000+0  14539-3 0  9994
2 48398  53.0541  11.5256 0001778  92.2130 267.9063 15.06401468 98300
STARLINK-2587           
1 48399U 21038AY  23036.18693044 -.00001406  00000+0 -75532-4 0  9994
2 48399  53.0549   7.6598 0001475  91.4803 268.6355 15.06385389 97805
STARLINK-2576           
1 48400U 21038AZ  23035.32072023  .00000493  00000+0  51963-4 0  9995
2 48400  53.0550  11.5509 0001509 107.8712 252.2442 15.06399010 97087
STARLINK-2571           
1 48401U 21038BA  23036.22009020  .00000519  00000+0  53772-4 0  9992
2 48401  53.0533   7.5320 0001426  95.5541 264.5611 15.06393768 97804
STARLINK-2560           
1 48402U 21038BB  23035.91320212 -.00001219  00000+0 -62951-4 0  9996
2 48402  53.0534   8.8919 0001871  99.6127 260.5074 15.06398039 97178
STARLINK-2561           
1 48403U 21038BC  23036.17585586  .00000845  00000+0  75595-4 0  9993
2 48403  53.0551   7.7076 0001717  97.5004 262.6180 15.06402096 97800
STARLINK-2593           
1 48404U 21038BD  23036.17216978 -.00000575  00000+0 -19696-4 0  9992
2 48404  53.0549   7.7350 0001339  96.2748 263.8394 15.06391936 97804
STARLINK-2570           
1 48405U 21038BE  23036.16849029  .00000057  00000+0  22733-4 0  9990
2 48405  53.0589   7.7425 0001729 101.7281 258.3902 15.06396753 97805
STARLINK-2568           
1 48406U 21038BF  23036.16479455  .00000103  00000+0  25843-4 0  9990
2 48406  53.0545   7.7672 0001592 107.5330 252.5833 15.06403056 97803
STARLINK-2595           
1 48407U 21038BG  23035.29860351  .00000672  00000+0  64000-4 0  9992
2 48407  53.0554  11.6548 0001365  97.0096 263.1048 15.06397689 97079
STARLINK-2592           
1 48408U 21038BH  23036.22376435 -.00008784  00000+0 -57181-3 0  9997
2 48408  53.0524   7.5053 0001122 113.3838 246.7269 15.06381414 97801
STARLINK-2596           
1 48409U 21038BJ  23036.18093094  .00000298  00000+0  38907-4 0  9996
2 48409  53.0564  12.6929 0001652  91.2125 268.9053 15.06394905 97734
STARLINK-2563           
1 48410U 21038BK  23036.18552948  .00008092  00000+0  56131-3 0  9994
2 48410  53.0529 322.6766 0001566  89.8755 270.2413 15.06412447 98421
STARLINK-2505           
1 48411U 21038BL  23036.13622786  .00009552  00000+0  65914-3 0  9999
2 48411  53.0539 317.8962 0001493  83.4508 276.6651 15.06408889 98487
STARLINK-2581           
1 48412U 21038BM  23035.95567174  .00001004  00000+0  86259-4 0  9998
2 48412  53.0518 319.1463 0001221  94.6752 265.4376 15.06401480 98457
YAOGAN-30 X             
1 48423U 21039A   23035.97243741  .00002224  00000+0  22136-3 0  9992
2 48423  35.0005 251.6825 0005098 219.4844 140.5492 14.91365953 95408
YAOGAN-30 Y             
1 48424U 21039B   23036.01652417  .00002261  00000+0  22496-3 0  9993
2 48424  34.9987 251.0149 0006588 317.6894  42.3302 14.91376116 95413
YAOGAN-30 Z             
1 48425U 21039C   23036.06106853  .00002234  00000+0  22232-3 0  9995
2 48425  34.9990 250.4317 0003417 253.0988 106.9344 14.91366899 95435
TIANQI-12               
1 48426U 21039D   23036.03379351  .00003184  00000+0  30202-3 0  9999
2 48426  35.0068 242.2018 0006260 349.0124  11.0438 14.93133356 95496
STARLINK-2461           
1 48428U 21040A   23035.89709782  .00002080  00000+0  15847-3 0  9993
2 48428  53.0530 213.9634 0001296  88.8960 271.2177 15.06402415 96425
STARLINK-2749           
1 48429U 21040B   23036.13208122 -.00003049  00000+0 -18585-3 0  9994
2 48429  53.0537 182.9184 0000811  98.3318 261.7763 15.06404950 98156
STARLINK-2729           
1 48430U 21040C   23035.83258328 -.00000219  00000+0  41689-5 0  9993
2 48430  53.0528 184.2547 0001139  93.3470 266.7649 15.06392092 96838
STARLINK-2700           
1 48431U 21040D   23036.17767525  .00000637  00000+0  61644-4 0  9991
2 48431  53.0523 177.7119 0001225  86.9308 273.1821 15.06394417 97401
STARLINK-2680           
1 48432U 21040E   23036.15885520  .00002748  00000+0  20337-3 0  9994
2 48432  53.0532 173.1929 0001245  92.1689 267.9443 15.06386118 97628
STARLINK-2699           
1 48433U 21040F   23036.10493461  .00000864  00000+0  76916-4 0  9991
2 48433  53.0524 178.3176 0001481  80.0061 280.1095 15.06396149 97549
STARLINK-2692           
1 48434U 21040G   23035.80408951  .00001310  00000+0  10681-3 0  9991
2 48434  53.0517 184.8994 0000996  86.6222 273.4880 15.06405453 96829
STARLINK-2633           
1 48435U 21040H   23035.81048831 -.00000379  00000+0 -65211-5 0  9997
2 48435  53.0518 194.3665 0001285  85.1747 274.9389 15.06409653 96680
STARLINK-2639           
1 48436U 21040J   23035.79988461  .00000303  00000+0  39220-4 0  9992
2 48436  53.0520 209.4051 0001410  90.9842 269.1309 15.06405823 96471
STARLINK-2642           
1 48437U 21040K   23035.91691260  .00000962  00000+0  83435-4 0  9993
2 48437  53.0511 218.8797 0001152  92.4811 267.6310 15.06399101 96352
STARLINK-2640           
1 48438U 21040L   23035.86256639  .00007863  00000+0  54608-3 0  9991
2 48438  53.0524 209.1176 0000855  89.0043 271.1044 15.06406553 96487
STARLINK-2583           
1 48439U 21040M   23035.85885686  .00001644  00000+0  12922-3 0  9995
2 48439  53.0556 209.1292 0001301  92.4947 267.6191 15.06402586 96485
STARLINK-2682           
1 48440U 21040N   23035.85517587  .00000216  00000+0  33397-4 0  9993
2 48440  53.0558 209.1453 0001143  92.7555 267.3564 15.06401510 96487
STARLINK-2702           
1 48441U 21040P   23035.91783702  .00000875  00000+0  77612-4 0  9994
2 48441  53.0548 208.8637 0001410  94.5720 265.5430 15.06400147 96496
STARLINK-2644           
1 48442U 21040Q   23036.17954107  .00000627  00000+0  60968-4 0  9994
2 48442  53.0515 207.7001 0001069  92.4982 267.6129 15.06393431 97813
STARLINK-2663           
1 48443U 21040R   23035.91046283  .00000792  00000+0  72075-4 0  9998
2 48443  53.0528 208.9070 0001135  89.1448 270.9671 15.06400963 96492
STARLINK-2645           
1 48444U 21040S   23035.90677483  .00000472  00000+0  50573-4 0  9994
2 48444  53.0524 208.9210 0001122  93.0198 267.0920 15.06403076 96499
STARLINK-2634           
1 48445U 21040T   23036.16847943  .00000404  00000+0  45992-4 0  9998
2 48445  53.0534 207.7465 0001050  93.5491 266.5619 15.06396922 97818
STARLINK-2247           
1 48446U 21040U   23036.16479584 -.00000042  00000+0  16066-4 0  9990
2 48446  53.0526 207.7631 0001046  86.0233 274.0875 15.06393792 97811
STARLINK-2269           
1 48447U 21040V   23036.16111681 -.00000251  00000+0  20628-5 0  9994
2 48447  53.0517 207.7865 0001224  89.6235 270.4894 15.06386652 97087
STARLINK-2632           
1 48448U 21040W   23035.85423177  .00000843  00000+0  75468-4 0  9993
2 48448  53.0532 209.1583 0001313  88.9752 271.1388 15.06397874 96480
STARLINK-2655           
1 48449U 21040X   23035.89202888  .00000599  00000+0  59087-4 0  9999
2 48449  53.0534 208.9871 0001104  85.6667 274.4448 15.06405370 96492
STARLINK-2660           
1 48450U 21040Y   23035.68930641  .00001289  00000+0  10540-3 0  9990
2 48450  53.0526 209.9015 0001194  92.9646 267.1480 15.06402772 96468
STARLINK-2652           
1 48451U 21040Z   23035.82105637  .00001252  00000+0  10291-3 0  9999
2 48451  53.0508 209.3431 0001398  80.1654 279.9493 15.06403534 96483
STARLINK-2703           
1 48452U 21040AA  23035.75194867  .00005852  00000+0  41162-3 0  9996
2 48452  53.0498 209.5933 0001569  82.1551 277.9616 15.06380004 96479
STARLINK-2620           
1 48453U 21040AB  23035.74829340  .00010098  00000+0  69659-3 0  9996
2 48453  53.0516 209.6358 0001360  96.6280 263.4864 15.06358632 96478
STARLINK-2654           
1 48454U 21040AC  23035.81096228  .00006706  00000+0  46862-3 0  9998
2 48454  53.0536 209.3461 0001183  96.7649 263.3474 15.06402697 96484
STARLINK-2497           
1 48455U 21040AD  23035.74091266  .00000415  00000+0  46728-4 0  9991
2 48455  53.0528 209.6663 0001202  88.5921 271.5205 15.06398531 96469
STARLINK-2508           
1 48456U 21040AE  23035.86991949  .00001361  00000+0  11024-3 0  9993
2 48456  53.0525 209.0893 0001272  86.3907 273.7227 15.06399511 96482
STARLINK-2698           
1 48458U 21040AG  23035.88237204  .00000697  00000+0  65659-4 0  9999
2 48458  53.0530 214.1188 0001080  84.9085 275.2027 15.06397532 97131
STARLINK-2579           
1 48459U 21040AH  23035.80868486  .00000576  00000+0  57538-4 0  9997
2 48459  53.0535 214.7191 0001226  95.0313 265.0816 15.06400589 96416
STARLINK-2582           
1 48460U 21040AJ  23035.76072472  .00002182  00000+0  16536-3 0  9993
2 48460  53.0514 214.5800 0001191  89.1060 271.0065 15.06395650 96914
STARLINK-2693           
1 48461U 21040AK  23035.77546627 -.00000997  00000+0 -48053-4 0  9997
2 48461  53.0517 214.5195 0001331  91.8094 268.3047 15.06399243 96414
STARLINK-2683           
1 48462U 21040AL  23035.89114923  .00000932  00000+0  81438-4 0  9992
2 48462  53.0528 219.2724 0001015  89.2636 270.8469 15.06398762 96353
STARLINK-2689           
1 48463U 21040AM  23035.89754423  .00002669  00000+0  19798-3 0  9996
2 48463  53.0509 218.9671 0001351  83.5225 276.5918 15.06399461 96364
STARLINK-2686           
1 48464U 21040AN  23036.20811186  .00004850  00000+0  34448-3 0  9996
2 48464  53.0528 217.5712 0000919  81.6295 278.4798 15.06376337 97682
STARLINK-2681           
1 48465U 21040AP  23035.88742457  .00002757  00000+0  20393-3 0  9992
2 48465  53.0539 219.0002 0001109  80.2135 279.8979 15.06392550 96369
STARLINK-2687           
1 48466U 21040AQ  23036.20441911  .00002472  00000+0  18477-3 0  9995
2 48466  53.0514 217.5867 0001231  84.3578 275.7551 15.06398114 97686
STARLINK-2659           
1 48467U 21040AR  23036.23023927  .00000022  00000+0  20380-4 0  9998
2 48467  53.0521 217.4711 0001324  88.0290 272.0851 15.06390017 97684
